     2              NAVIGATION DATA                         RINEX VERSION / TYPE
CCRINEXN V1.6.0 UX  CDDIS               14-JUN-22 15:42     PGM / RUN BY / DATE 
IGS BROADCAST EPHEMERIS FILE                                COMMENT             
    0.1397D-07  0.2235D-07 -0.1192D-06 -0.1192D-06          ION ALPHA           
    0.1106D+06  0.1638D+06 -0.6554D+05 -0.5243D+06          ION BETA            
    0.279396772385D-08 0.532907051820D-14   405504     2214 DELTA-UTC: A0,A1,T,W
    18                                                      LEAP SECONDS        
                                                            END OF HEADER       
23 22  6 14  6  0  0.0-0.279014930129D-04-0.216004991671D-11 0.000000000000D+00
    0.890000000000D+02-0.904062500000D+02 0.389016204086D-08 0.133381768878D+01
   -0.480748713017D-05 0.224360241555D-02 0.127088278532D-04 0.515372118759D+04
    0.194400000000D+06-0.651925802231D-07-0.303308309547D+01 0.763684511185D-07
    0.969392506723D+00 0.139937500000D+03 0.300129515249D+01-0.752674209045D-08
    0.562880589093D-09 0.100000000000D+01 0.221400000000D+04 0.000000000000D+00
    0.200000000000D+01 0.000000000000D+00-0.838190317154D-08 0.345000000000D+03
    0.187219000000D+06 0.400000000000D+01 0.000000000000D+00 0.000000000000D+00
24 22  6 14  6  0  0.0 0.221122056246D-03-0.841282599140D-11 0.000000000000D+00
    0.710000000000D+02-0.192812500000D+02 0.542594029791D-08 0.239332480372D+01
   -0.117532908917D-05 0.125420868862D-01 0.745244324207D-05 0.515367872810D+04
    0.194400000000D+06-0.124797224999D-06-0.990234529437D+00-0.195577740669D-06
    0.933958079514D+00 0.221406250000D+03 0.817354712070D+00-0.811105214359D-08
   -0.622525930704D-09 0.100000000000D+01 0.221400000000D+04 0.000000000000D+00
    0.200000000000D+01 0.000000000000D+00 0.279396772385D-08 0.710000000000D+02
    0.187218000000D+06 0.400000000000D+01 0.000000000000D+00 0.000000000000D+00
25 22  6 14  6  0  0.0 0.337133649737D-03 0.466116034659D-11 0.000000000000D+00
    0.930000000000D+02 0.127750000000D+03 0.437839666351D-08 0.508152408279D+00
    0.679865479469D-05 0.104690530570D-01 0.103618949652D-04 0.515366663551D+04
    0.194400000000D+06-0.108033418655D-06 0.129289259062D+00 0.894069671631D-07
    0.956953268945D+00 0.178281250000D+03 0.100402374363D+01-0.798283251702D-08
   -0.367872466222D-09 0.100000000000D+01 0.221400000000D+04 0.000000000000D+00
    0.200000000000D+01 0.000000000000D+00 0.558793544769D-08 0.930000000000D+02
    0.187447000000D+06 0.400000000000D+01 0.000000000000D+00 0.000000000000D+00
26 22  6 14  6  0  0.0 0.212218612432D-03 0.238742359215D-11 0.000000000000D+00
    0.960000000000D+02 0.136062500000D+03 0.467805200250D-08-0.174995840594D+00
    0.692531466484D-05 0.695619767066D-02 0.110045075417D-04 0.515377548218D+04
    0.194400000000D+06 0.372529029846D-07 0.801210651811D-01 0.596046447754D-07
    0.937770891682D+00 0.153437500000D+03 0.386433131463D+00-0.808676541767D-08
   -0.432875173846D-09 0.100000000000D+01 0.221400000000D+04 0.000000000000D+00
    0.200000000000D+01 0.000000000000D+00 0.698491930962D-08 0.960000000000D+02
    0.191149000000D+06 0.400000000000D+01 0.000000000000D+00 0.000000000000D+00
27 22  6 14  6  0  0.0 0.215270556510D-03 0.341060513165D-11 0.000000000000D+00
    0.460000000000D+02 0.106625000000D+03 0.432089426830D-08-0.198264378023D+01
    0.557675957680D-05 0.105435710866D-01-0.542029738426D-06 0.515365861130D+04
    0.194400000000D+06 0.186264514923D-08 0.118213925849D+01-0.184401869774D-06
    0.971955359259D+00 0.398250000000D+03 0.688214821333D+00-0.824570060938D-08
    0.251439044874D-09 0.100000000000D+01 0.221400000000D+04 0.000000000000D+00
    0.200000000000D+01 0.000000000000D+00 0.186264514923D-08 0.460000000000D+02
    0.187218000000D+06 0.400000000000D+01 0.000000000000D+00 0.000000000000D+00
28 22  6 14  6  0  0.0 0.338685698807D-03-0.693489710102D-11 0.000000000000D+00
    0.780000000000D+02 0.141375000000D+03 0.400552398901D-08-0.153030369209D+01
    0.733323395252D-05 0.165415297961D-01 0.104196369648D-04 0.515368632507D+04
    0.194400000000D+06-0.288709998131D-06 0.229374185030D+00 0.325962901115D-06
    0.968510789905D+00 0.185906250000D+03-0.127558187806D+01-0.781353975101D-08
   -0.256082095419D-09 0.100000000000D+01 0.221400000000D+04 0.000000000000D+00
    0.200000000000D+01 0.630000000000D+02-0.111758708954D-07 0.780000000000D+02
    0.187218000000D+06 0.400000000000D+01 0.000000000000D+00 0.000000000000D+00
29 22  6 14  6  0  0.0-0.523866619915D-03-0.386535248253D-11 0.000000000000D+00
    0.830000000000D+02 0.733125000000D+02 0.426303471536D-08-0.191002892138D+01
    0.379607081413D-05 0.222406338435D-02-0.335276126862D-06 0.515369143105D+04
    0.194400000000D+06 0.465661287308D-07 0.125874750919D+01-0.167638063431D-07
    0.980485824759D+00 0.396093750000D+03 0.229666313386D+01-0.830713173967D-08
    0.126076680171D-09 0.100000000000D+01 0.221400000000D+04 0.000000000000D+00
    0.200000000000D+01 0.000000000000D+00-0.102445483208D-07 0.830000000000D+02
    0.187218000000D+06 0.400000000000D+01 0.000000000000D+00 0.000000000000D+00
30 22  6 14  6  0  0.0-0.531316269189D-03-0.113686837722D-11 0.000000000000D+00
    0.870000000000D+02-0.202187500000D+02 0.552844456762D-08 0.137340722319D+01
   -0.825151801109D-06 0.589653290808D-02 0.801496207714D-05 0.515375005150D+04
    0.194400000000D+06-0.111758708954D-07-0.894121755211D+00 0.949949026108D-07
    0.935684767575D+00 0.214218750000D+03-0.267397155664D+01-0.839142096494D-08
   -0.756460081027D-09 0.100000000000D+01 0.221400000000D+04 0.000000000000D+00
    0.200000000000D+01 0.000000000000D+00 0.372529029846D-08 0.870000000000D+02
    0.187218000000D+06 0.400000000000D+01 0.000000000000D+00 0.000000000000D+00
31 22  6 14  6  0  0.0-0.181729905307D-03-0.147792889038D-11 0.000000000000D+00
    0.720000000000D+02-0.606250000000D+01 0.502020911186D-08 0.934175235074D+00
   -0.465661287308D-07 0.104397324612D-01 0.816956162453D-05 0.515374713135D+04
    0.194400000000D+06 0.577419996262D-07-0.886916193174D+00 0.949949026108D-07
    0.954737108976D+00 0.217531250000D+03 0.395383798236D+00-0.812033824468D-08
   -0.874322133312D-09 0.100000000000D+01 0.221400000000D+04 0.000000000000D+00
    0.282842707634D+01 0.000000000000D+00-0.135041773319D-07 0.720000000000D+02
    0.187272000000D+06 0.400000000000D+01 0.000000000000D+00 0.000000000000D+00
 6 22  6 14  7 59 44.0 0.343038700521D-03 0.154614099301D-10 0.000000000000D+00
    0.300000000000D+01-0.144875000000D+03 0.383587406527D-08-0.293352070336D+01
   -0.753998756409D-05 0.249007646926D-02 0.291131436825D-05 0.515374361229D+04
    0.201584000000D+06 0.145286321640D-06 0.223648044543D+01-0.298023223877D-07
    0.987219420166D+00 0.340656250000D+03-0.853019270922D+00-0.793783064251D-08
   -0.375372778640D-09 0.100000000000D+01 0.221400000000D+04 0.000000000000D+00
    0.200000000000D+01 0.000000000000D+00 0.372529029846D-08 0.300000000000D+01
    0.200017000000D+06 0.400000000000D+01 0.000000000000D+00 0.000000000000D+00
12 22  6 14  7 59 44.0-0.230892095715D-03-0.591171556152D-11 0.000000000000D+00
    0.700000000000D+01 0.130843750000D+03 0.401088135502D-08 0.184286691119D+01
    0.651367008686D-05 0.860170542728D-02 0.107064843178D-04 0.515379124641D+04
    0.201584000000D+06-0.502914190292D-07 0.207350232764D+00-0.212341547012D-06
    0.969457673872D+00 0.174531250000D+03 0.130413071122D+01-0.762567478282D-08
   -0.201794119821D-09 0.100000000000D+01 0.221400000000D+04 0.000000000000D+00
    0.200000000000D+01 0.000000000000D+00-0.125728547573D-07 0.700000000000D+01
    0.199956000000D+06 0.400000000000D+01 0.000000000000D+00 0.000000000000D+00
15 22  6 14  7 59 44.0-0.533643178642D-04 0.295585778076D-11 0.000000000000D+00
    0.150000000000D+02 0.233437500000D+02 0.547844248483D-08-0.193287956865D+01
    0.114366412163D-05 0.141114926664D-01 0.623427331448D-05 0.515356120110D+04
    0.201584000000D+06 0.195577740669D-06-0.208693320297D+01-0.186264514923D-07
    0.930146142172D+00 0.233125000000D+03 0.109431644311D+01-0.820784188956D-08
    0.789318592573D-09 0.100000000000D+01 0.221400000000D+04 0.000000000000D+00
    0.200000000000D+01 0.000000000000D+00-0.107102096081D-07 0.150000000000D+02
    0.195156000000D+06 0.400000000000D+01 0.000000000000D+00 0.000000000000D+00
16 22  6 14  7 59 44.0-0.508823432028D-03-0.272848410532D-11 0.000000000000D+00
    0.190000000000D+02 0.150125000000D+03 0.411588572888D-08 0.195780863630D-03
    0.796653330326D-05 0.127064256230D-01 0.102259218693D-04 0.515367443466D+04
    0.201584000000D+06 0.223517417908D-07 0.225884010667D+00 0.139698386192D-06
    0.969336940706D+00 0.185093750000D+03 0.729055092185D+00-0.793890211571D-08
   -0.245010205658D-09 0.100000000000D+01 0.221400000000D+04 0.000000000000D+00
    0.200000000000D+01 0.000000000000D+00-0.102445483208D-07 0.190000000000D+02
    0.199657000000D+06 0.400000000000D+01 0.000000000000D+00 0.000000000000D+00
26 22  6 14  7 59 44.0 0.212235841900D-03 0.238742359215D-11 0.000000000000D+00
    0.300000000000D+01 0.121000000000D+03 0.484055877156D-08 0.872948312795D+00
    0.654347240925D-05 0.695441081189D-02 0.107139348984D-04 0.515377155495D+04
    0.201584000000D+06 0.409781932831D-07 0.800629200391D-01 0.502914190292D-07
    0.937767777129D+00 0.158093750000D+03 0.386276567044D+00-0.809390857235D-08
   -0.428589281035D-09 0.100000000000D+01 0.221400000000D+04 0.000000000000D+00
    0.200000000000D+01 0.000000000000D+00 0.698491930962D-08 0.300000000000D+01
    0.195529000000D+06 0.400000000000D+01 0.000000000000D+00 0.000000000000D+00
